#aV2023  3 10  0  0  0.00000000     288 DD+AD WGS84 FIT  NGA
## 2252 432000.00000000   300.00000000 60013 0.0000000000000
+   32     1  2  3  4  5  6  7  8  9 10 11 12 13 14 15 16 17
+         18 19 20 21 22 23 24 25 26 27 28 29 30 31 32  0  0
+          0  0  0  0  0  0  0  0  0  0  0  0  0  0  0  0  0
+          0  0  0  0  0  0  0  0  0  0  0  0  0  0  0  0  0
+          0  0  0  0  0  0  0  0  0  0  0  0  0  0  0  0  0
++         2  2  2  2  2  2  2  2  2  2  2  2  2  2  2  2  2
++         2  2  2  2  2  2  2  2  2  2  2  2  2  2  2  0  0
++         0  0  0  0  0  0  0  0  0  0  0  0  0  0  0  0  0
++         0  0  0  0  0  0  0  0  0  0  0  0  0  0  0  0  0
++         0  0  0  0  0  0  0  0  0  0  0  0  0  0  0  0  0
%c cc cc ccc ccc cccc cccc cccc cccc ccccc ccccc ccccc ccccc
%c cc cc ccc ccc cccc cccc cccc cccc ccccc ccccc ccccc ccccc
%f  0.0000000  0.000000000  0.00000000000  0.000000000000000
%f  0.0000000  0.000000000  0.00000000000  0.000000000000000
%i    0    0    0    0      0      0      0      0         0
%i    0    0    0    0      0      0      0      0         0
/*      NGA, ST. LOUIS,MO.                                  
/*   EPHEMERIS COMPUTED FROM 2 DAYS OF DATA                 
/*   EPOCHA v8 SMOOTHER                                     
/*   G2139 IERS2010 SATIGS SATAPC                           
*  2023  3 10  2  5  0.00000000
P  1  11008.545698  13420.063533 -20529.287143    204.385258                    
V  1 -25168.996132    654.569044 -12934.300881     -0.038581                    
P  2 -14402.600026 -11942.016452  19381.422665   -615.476705                    
V  2  23117.750060  -3634.739060  15677.578000      0.027666                    
P  3  12676.566745  23347.907582  -1870.918505   -352.390724                    
V  3  -3010.490658   -764.326324 -31926.493299      0.060784                    
P  4   4624.041802  18007.716580  18935.446362    -10.615444                    
V  4 -13521.425527  19947.896969 -15784.455525      0.086005                    
P  5  -1417.976340 -21371.101855  15459.997122   -118.860185                    
V  5  12807.288840  15465.463743  22425.299887     -0.014628                    
P  6  24718.561510  -5679.578714   8118.233278    579.976571                    
V  6  10183.227784   1555.787803 -30071.467850      0.031673                    
P  7  22901.919526   7996.699259  11809.080166    226.239576                    
V  7 -14123.983074   2431.870332  26266.548346     -0.075979                    
P  8  -4371.247099  23967.725029 -10147.895564   -112.178242                    
V  8  -8427.212932  10200.080757  28278.773276     -0.017903                    
P  9  13151.823383   7822.952244  21634.773685   -203.682734                    
V  9 -12892.943942  24475.999465  -1053.349261      0.074085                    
P 10 -17104.091213  -1949.726211 -20137.045404    -27.895529                    
V 10 -12765.997399 -22467.085453  12605.492515     -0.015817                    
P 11  14548.793723 -12363.187455  18461.498529   -125.751947                    
V 11  23367.444169   2135.153683 -17025.925828     -0.111692                    
P 12  -9638.024279 -24549.066265  -3842.536280   -349.615365                    
V 12   4302.022035   2865.399411 -31307.966726     -0.046139                    
P 13  12522.547116 -22763.282858  -5161.183790    488.083826                    
V 13   5885.327367  -3550.791921  31181.756497      0.058465                    
P 14  18164.865634   4784.853874 -18822.136691     -8.061737                    
V 14  10418.216977  21567.085347  15400.161807      0.099789                    
P 15    816.454448 -24364.265629 -10661.492653     20.182625                    
V 15   7755.539134 -10992.704714  27129.231097      0.033674                    
P 16  -3256.801340  19806.290792  16847.175973   -516.273715                    
V 16 -11600.516145 -18983.340768  20170.764991      0.020969                    
P 17  18295.461186  -6385.950971 -17780.779098    704.594539                    
V 17 -11294.941668  20513.757612 -18446.832175      0.021332                    
P 18 -24920.342403  -5231.073022   7814.496302   -172.974072                    
V 18   9860.209215  -2172.418900  29856.976031     -0.162754                    
P 19  19262.325899 -14471.614932 -11086.431423    287.952045                    
V 19  -6083.806906  12593.975501 -27847.890871      0.050952                    
P 20   6880.624188 -15019.353966  20869.356554    445.996240                    
V 20  17815.766456  19534.783960   7995.687227     -0.023300                    
P 21   2400.236647  14747.837086 -21391.544907    154.305031                    
V 21 -28409.521003   2759.307535   -440.176632      0.001010                    
P 22 -17956.962916  17811.919581  -7374.122981    442.212162                    
V 22   3167.434959  -9895.455432 -30004.012988      0.073697                    
P 23 -19121.278631 -13062.453662 -13132.701286      9.802624                    
V 23  -7455.254386 -14957.147086  25579.189110      0.020066                    
P 24  -6982.065735 -14992.551190 -21192.478369   -105.364790                    
V 24  25939.122874  -3299.622502  -5896.537510     -0.154233                    
P 25 -16730.415216 -20116.412473   5042.876930    426.428818                    
V 25  -1202.619456  -7207.321056 -30548.917026      0.030742                    
P 26 -12648.515934   9358.157319  21277.716273    241.932539                    
V 26 -15894.763575 -22320.349215    706.113935      0.001128                    
P 27 -12555.072121  23142.114109    -77.462721     84.604573                    
V 27  -2484.708217  -1570.518603  32208.534993     -0.085030                    
P 28 -25271.030714   5585.094305   5924.975982     38.599810                    
V 28  -7704.900619  -2253.065251 -30586.167088      0.109361                    
P 29  -9699.648348 -11839.483348  21646.176224   -590.074389                    
V 29  15431.771192 -22846.844711  -5644.748162     -0.018328                    
P 30  26690.500979   -657.196988   -467.857194   -527.510416                    
V 30    747.619075   3368.573858  31016.589596      0.015134                    
P 31 -23616.014868   7204.583570  10201.285121   -211.214786                    
V 31 -13060.329141  -2361.633839 -27655.663332     -0.009110                    
P 32 -18253.548445   9626.918193 -16436.552358   -418.911298                    
V 32   8285.679316 -19702.832819 -20724.457466     -0.110037                    
EOF
